[{"OBJECT_NAME":"JILIN-1 05","OBJECT_ID":"2017-074B","EPOCH":"2026-03-09T21:56:30.612480","MEAN_MOTION":15.3245271,"ECCENTRICITY":0.00045948,"INCLINATION":97.4781,"RA_OF_ASC_NODE":173.8936,"ARG_OF_PERICENTER":206.4038,"MEAN_ANOMALY":153.6971,"EPHEMERIS_TYPE":0,"CLASSIFICATION_TYPE":"U","NORAD_CAT_ID":43023,"ELEMENT_SET_NO":999,"REV_AT_EPOCH":45879,"BSTAR":0.00026108793,"MEAN_MOTION_DOT":8.104e-5,"MEAN_MOTION_DDOT":0},{"OBJECT_NAME":"STARLINK-35537","OBJECT_ID":"2025-245A","EPOCH":"2026-03-09T20:26:56.516928","MEAN_MOTION":15.30203977,"ECCENTRICITY":0.00018022,"INCLINATION":53.1582,"RA_OF_ASC_NODE":282.9849,"ARG_OF_PERICENTER":56.6152,"MEAN_ANOMALY":303.5021,"EPHEMERIS_TYPE":0,"CLASSIFICATION_TYPE":"U","NORAD_CAT_ID":66234,"ELEMENT_SET_NO":999,"REV_AT_EPOCH":2128,"BSTAR":0.0011612739,"MEAN_MOTION_DOT":0.00034197,"MEAN_MOTION_DDOT":0}]
